{"type": "FeatureCollection", "features": [ {"type": "Feature", "properties": {"norad_id": 54234, "name": "NOAA 21 (JPSS-2)", "group": "weather", "lat": 15.363725110865849, "lon": 108.64002201136307, "alt_km": 828.7153209268963, "timestamp": "2025-12-15T22:44:28.563598+00:00", "meta": {"OBJECT_NAME": "NOAA 21 (JPSS-2)", "OBJECT_ID": "2022-150A", "EPOCH": "2025-12-15T08:26:11.246784", "MEAN_MOTION": 14.19525054, "ECCENTRICITY": 0.00021162, "INCLINATION": 98.7464, "RA_OF_ASC_NODE": 285.6272, "ARG_OF_PERICENTER": 33.0442, "MEAN_ANOMALY": 327.0866, "EPHEMERIS_TYPE": 0, "CLASSIFICATION_TYPE": "U", "NORAD_CAT_ID": 54234, "ELEMENT_SET_NO": 999, "REV_AT_EPOCH": 16046, "BSTAR": 6.242747e-05, "MEAN_MOTION_DOT": 8.8e-07, "MEAN_MOTION_DDOT": 0}, "tle": {"line1": "1 54234U 22150A   25349.35151906  .00000088  00000+0  62427-4 0  9991", "line2": "2 54234  98.7464 285.6272 0002116  33.0442 327.0866 14.19525054160461"}}, "geometry": {"type": "Point", "coordinates": [108.64002201136307, 15.363725110865849]}}, {"type": "Feature", "properties": {"norad_id": 54743, "name": "METEOSAT-12 (MTG-I1)", "group": "weather", "lat": 0.48167592958669997, "lon": 65.6743670216316, "alt_km": 35792.990486103416, "timestamp": "2025-12-15T22:44:28.563611+00:00", "meta": {"OBJECT_NAME": "METEOSAT-12 (MTG-I1)", "OBJECT_ID": "2022-170C", "EPOCH": "2025-12-15T06:32:17.576160", "MEAN_MOTION": 1.00269692, "ECCENTRICITY": 0.0001584, "INCLINATION": 0.6896, "RA_OF_ASC_NODE": 24.0298, "ARG_OF_PERICENTER": 238.8017, "MEAN_ANOMALY": 279.1443, "EPHEMERIS_TYPE": 0, "CLASSIFICATION_TYPE": "U", "NORAD_CAT_ID": 54743, "ELEMENT_SET_NO": 999, "REV_AT_EPOCH": 1113, "BSTAR": 0, "MEAN_MOTION_DOT": 1.3e-07, "MEAN_MOTION_DDOT": 0}, "tle": {"line1": "1 54743U 22170C   25349.27242565  .00000013  00000+0  00000+0 0  9993", "line2": "2 54743   0.6896  24.0298 0001584 238.8017 279.1443  1.00269692 11137"}}, "geometry": {"type": "Point", "coordinates": [65.6743670216316, 0.48167592958669997]}}, {"type": "Feature", "properties": {"norad_id": 55973, "name": "TIANMU-1 03", "group": "weather", "lat": 49.61002116386315, "lon": 143.76738826101024, "alt_km": 435.7016698482421, "timestamp": "2025-12-15T22:44:28.563624+00:00", "meta": {"OBJECT_NAME": "TIANMU-1 03", "OBJECT_ID": "2023-039A", "EPOCH": "2025-12-15T08:29:54.595968", "MEAN_MOTION": 15.41006139, "ECCENTRICITY": 0.00043155, "INCLINATION": 97.5103, "RA_OF_ASC_NODE": 152.0784, "ARG_OF_PERICENTER": 53.4661, "MEAN_ANOMALY": 306.6982, "EPHEMERIS_TYPE": 0, "CLASSIFICATION_TYPE": "U", "NORAD_CAT_ID": 55973, "ELEMENT_SET_NO": 999, "REV_AT_EPOCH": 15246, "BSTAR": 0.00027962582, "MEAN_MOTION_DOT": 0.00011451, "MEAN_MOTION_DDOT": 0}, "tle": {"line1": "1 55973U 23039A   25349.35410412  .00011451  00000+0  27963-3 0  9990", "line2": "2 55973  97.5103 152.0784 0004315  53.4661 306.6982 15.41006139152463"}}, "geometry": {"type": "Point", "coordinates": [143.76738826101024, 49.61002116386315]}}, {"type": "Feature", "properties": {"norad_id": 55974, "name": "TIANMU-1 04", "group": "weather", "lat": 11.59621874088515, "lon": -26.572069378281398, "alt_km": 445.3700902252531, "timestamp": "2025-12-15T22:44:28.563707+00:00", "meta": {"OBJECT_NAME": "TIANMU-1 04", "OBJECT_ID": "2023-039B", "EPOCH": "2025-12-15T09:32:58.611840", "MEAN_MOTION": 15.41345895, "ECCENTRICITY": 0.00049694, "INCLINATION": 97.5034, "RA_OF_ASC_NODE": 151.3134, "ARG_OF_PERICENTER": 48.3105, "MEAN_ANOMALY": 311.8566, "EPHEMERIS_TYPE": 0, "CLASSIFICATION_TYPE": "U", "NORAD_CAT_ID": 55974, "ELEMENT_SET_NO": 999, "REV_AT_EPOCH": 15247, "BSTAR": 0.00027849704, "MEAN_MOTION_DOT": 0.00011535, "MEAN_MOTION_DDOT": 0}, "tle": {"line1": "1 55974U 23039B   25349.39790060  .00011535  00000+0  27850-3 0  9993", "line2": "2 55974  97.5034 151.3134 0004969  48.3105 311.8566 15.41345895152471"}}, "geometry": {"type": "Point", "coordinates": [-26.572069378281398, 11.59621874088515]}}, {"type": "Feature", "properties": {"norad_id": 55975, "name": "TIANMU-1 05", "group": "weather", "lat": -15.670144924271113, "lon": -29.749807653306796, "alt_km": 449.88770985824885, "timestamp": "2025-12-15T22:44:28.563730+00:00", "meta": {"OBJECT_NAME": "TIANMU-1 05", "OBJECT_ID": "2023-039C", "EPOCH": "2025-12-15T09:25:38.169696", "MEAN_MOTION": 15.40964831, "ECCENTRICITY": 0.00042933, "INCLINATION": 97.5081, "RA_OF_ASC_NODE": 151.8006, "ARG_OF_PERICENTER": 70.6843, "MEAN_ANOMALY": 289.4867, "EPHEMERIS_TYPE": 0, "CLASSIFICATION_TYPE": "U", "NORAD_CAT_ID": 55975, "ELEMENT_SET_NO": 999, "REV_AT_EPOCH": 15245, "BSTAR": 0.00027772611, "MEAN_MOTION_DOT": 0.00011357, "MEAN_MOTION_DDOT": 0}, "tle": {"line1": "1 55975U 23039C   25349.39280289  .00011357  00000+0  27773-3 0  9997", "line2": "2 55975  97.5081 151.8006 0004293  70.6843 289.4867 15.40964831152452"}}, "geometry": {"type": "Point", "coordinates": [-29.749807653306796, -15.670144924271113]}}, {"type": "Feature", "properties": {"norad_id": 55976, "name": "TIANMU-1 06", "group": "weather", "lat": 22.949664494206402, "lon": -23.959744526081852, "alt_km": 441.8158206313601, "timestamp": "2025-12-15T22:44:28.563747+00:00", "meta": {"OBJECT_NAME": "TIANMU-1 06", "OBJECT_ID": "2023-039D", "EPOCH": "2025-12-15T09:35:58.797312", "MEAN_MOTION": 15.41397735, "ECCENTRICITY": 0.00046042, "INCLINATION": 97.5092, "RA_OF_ASC_NODE": 152.2753, "ARG_OF_PERICENTER": 65.7613, "MEAN_ANOMALY": 294.4114, "EPHEMERIS_TYPE": 0, "CLASSIFICATION_TYPE": "U", "NORAD_CAT_ID": 55976, "ELEMENT_SET_NO": 999, "REV_AT_EPOCH": 15247, "BSTAR": 0.00027589604, "MEAN_MOTION_DOT": 0.00011446, "MEAN_MOTION_DDOT": 0}, "tle": {"line1": "1 55976U 23039D   25349.39998608  .00011446  00000+0  27590-3 0  9995", "line2": "2 55976  97.5092 152.2753 0004604  65.7613 294.4114 15.41397735152472"}}, "geometry": {"type": "Point", "coordinates": [-23.959744526081852, 22.949664494206402]}}, {"type": "Feature", "properties": {"norad_id": 56232, "name": "FENGYUN 3G", "group": "weather", "lat": 32.082519204335284, "lon": -117.3324863687725, "alt_km": 404.28238977271576, "timestamp": "2025-12-15T22:44:28.563764+00:00", "meta": {"OBJECT_NAME": "FENGYUN 3G", "OBJECT_ID": "2023-055A", "EPOCH": "2025-12-15T08:39:44.477280", "MEAN_MOTION": 15.53816859, "ECCENTRICITY": 0.00093586, "INCLINATION": 49.9932, "RA_OF_ASC_NODE": 213.927, "ARG_OF_PERICENTER": 160.6844, "MEAN_ANOMALY": 199.448, "EPHEMERIS_TYPE": 0, "CLASSIFICATION_TYPE": "U", "NORAD_CAT_ID": 56232, "ELEMENT_SET_NO": 999, "REV_AT_EPOCH": 15143, "BSTAR": 0.00035485342, "MEAN_MOTION_DOT": 0.00022888, "MEAN_MOTION_DDOT": 0}, "tle": {"line1": "1 56232U 23055A   25349.36093145  .00022888  00000+0  35485-3 0  9992", "line2": "2 56232  49.9932 213.9270 0009358 160.6844 199.4480 15.53816859151434"}}, "geometry": {"type": "Point", "coordinates": [-117.3324863687725, 32.082519204335284]}}, {"type": "Feature", "properties": {"norad_id": 57166, "name": "METEOR-M2 3", "group": "weather", "lat": 56.13141159782289, "lon": -123.4798391486353, "alt_km": 807.8491501245753, "timestamp": "2025-12-15T22:44:28.563782+00:00", "meta": {"OBJECT_NAME": "METEOR-M2 3", "OBJECT_ID": "2023-091A", "EPOCH": "2025-12-15T08:40:34.142592", "MEAN_MOTION": 14.24026362, "ECCENTRICITY": 0.00037572, "INCLINATION": 98.6375, "RA_OF_ASC_NODE": 42.855, "ARG_OF_PERICENTER": 1.3138, "MEAN_ANOMALY": 358.805, "EPHEMERIS_TYPE": 0, "CLASSIFICATION_TYPE": "U", "NORAD_CAT_ID": 57166, "ELEMENT_SET_NO": 999, "REV_AT_EPOCH": 12835, "BSTAR": 2.5881652e-05, "MEAN_MOTION_DOT": 1.6e-07, "MEAN_MOTION_DDOT": 0}, "tle": {"line1": "1 57166U 23091A   25349.36150628  .00000016  00000+0  25882-4 0  9999", "line2": "2 57166  98.6375  42.8550 0003757   1.3138 358.8050 14.24026362128355"}}, "geometry": {"type": "Point", "coordinates": [-123.4798391486353, 56.13141159782289]}}, {"type": "Feature", "properties": {"norad_id": 57399, "name": "TIANMU-1 07", "group": "weather", "lat": 68.34688104642014, "lon": 20.92076908381924, "alt_km": 471.0426626301569, "timestamp": "2025-12-15T22:44:28.563800+00:00", "meta": {"OBJECT_NAME": "TIANMU-1 07", "OBJECT_ID": "2023-101A", "EPOCH": "2025-12-15T08:17:38.626944", "MEAN_MOTION": 15.28112579, "ECCENTRICITY": 0.00055099, "INCLINATION": 97.288, "RA_OF_ASC_NODE": 39.1381, "ARG_OF_PERICENTER": 75.0485, "MEAN_ANOMALY": 285.1365, "EPHEMERIS_TYPE": 0, "CLASSIFICATION_TYPE": "U", "NORAD_CAT_ID": 57399, "ELEMENT_SET_NO": 999, "REV_AT_EPOCH": 13355, "BSTAR": 0.00020861477, "MEAN_MOTION_DOT": 5.647e-05, "MEAN_MOTION_DDOT": 0}, "tle": {"line1": "1 57399U 23101A   25349.34558596  .00005647  00000+0  20861-3 0  9999", "line2": "2 57399  97.2880  39.1381 0005509  75.0485 285.1365 15.28112579133550"}}, "geometry": {"type": "Point", "coordinates": [20.92076908381924, 68.34688104642014]}}, {"type": "Feature", "properties": {"norad_id": 57400, "name": "TIANMU-1 08", "group": "weather", "lat": -69.87363794966868, "lon": -160.91232959478322, "alt_km": 493.90116043676426, "timestamp": "2025-12-15T22:44:28.563817+00:00", "meta": {"OBJECT_NAME": "TIANMU-1 08", "OBJECT_ID": "2023-101B", "EPOCH": "2025-12-15T09:04:23.038752", "MEAN_MOTION": 15.28096088, "ECCENTRICITY": 0.00074595, "INCLINATION": 97.2869, "RA_OF_ASC_NODE": 38.9673, "ARG_OF_PERICENTER": 76.5418, "MEAN_ANOMALY": 283.6653, "EPHEMERIS_TYPE": 0, "CLASSIFICATION_TYPE": "U", "NORAD_CAT_ID": 57400, "ELEMENT_SET_NO": 999, "REV_AT_EPOCH": 13355, "BSTAR": 0.00020436108, "MEAN_MOTION_DOT": 5.529e-05, "MEAN_MOTION_DDOT": 0}, "tle": {"line1": "1 57400U 23101B   25349.37804443  .00005529  00000+0  20436-3 0  9997", "line2": "2 57400  97.2869  38.9673 0007459  76.5418 283.6653 15.28096088133558"}}, "geometry": {"type": "Point", "coordinates": [-160.91232959478322, -69.87363794966868]}}]}